STARLINK-2135           
1 47408U 21005BM  25217.58496602  .00001129  00000+0  94660-4 0  9999
2 47408  53.0549 281.7515 0001159  94.2098 265.9024 15.06399160250890
STARLINK-1954           
1 47555U 21009H   25217.57851575 -.00001031  00000+0 -50366-4 0  9998
2 47555  53.0550 271.7815 0001298  89.1814 270.9324 15.06391098248225
STARLINK-1955           
1 47556U 21009J   25217.55357331  .00045653  00000+0  17792-2 0  9998
2 47556  53.0584 283.6057 0003964 326.5289  33.5457 15.25532213248057
STARLINK-1958           
1 47559U 21009M   25217.52137927  .00000549  00000+0  55710-4 0  9994
2 47559  53.0549 252.0370 0001220  88.3283 271.7846 15.06402820248494
STARLINK-1962           
1 47563U 21009R   25217.53797007  .00002198  00000+0  16638-3 0  9998
2 47563  53.0544 271.9646 0001126  89.8106 270.3012 15.06402889248210
STARLINK-1964           
1 47565U 21009T   25217.53520241  .00001477  00000+0  11798-3 0  9995
2 47565  53.0541 261.9759 0001229  87.4616 272.6514 15.06404400248355
STARLINK-1965           
1 47566U 21009U   25217.32361698  .00037928  00000+0  14608-2 0  9994
2 47566  53.0332 238.1033 0003514 262.3591  97.7008 15.26011766248670
STARLINK-1966           
1 47567U 21009V   25217.58335648  .00388833  70855-4  99872-3 0  9990
2 47567  53.0158 224.3060 0009638 354.0735 260.9997 15.94651571  6049
STARLINK-1967           
1 47568U 21009W   25217.59141850  .00000650  00000+0  62516-4 0  9996
2 47568  53.0548 291.7209 0001281  82.0814 278.0320 15.06401206247945
STARLINK-1971           
1 47572U 21009AA  25217.44305519  .00000679  00000+0  64463-4 0  9993
2 47572  53.0541 262.3917 0001093  72.7436 287.3672 15.06399932248340
STARLINK-1975           
1 47573U 21009AB  25217.52200661  .00039838  00000+0  16464-2 0  9990
2 47573  53.0671 258.2273 0004370 356.3998   3.6966 15.23625386248405
STARLINK-1978           
1 47576U 21009AE  25217.35366366  .00057055  00000+0  17839-2 0  9997
2 47576  53.0546 238.4110 0007258 314.4033  45.6372 15.32603566248674
STARLINK-1979           
1 47577U 21009AF  25217.43339017  .00003095  00000+0  22656-3 0  9999
2 47577  53.0543 267.4333 0001175  78.3552 281.7569 15.06404174248277
STARLINK-1986           
1 47582U 21009AL  25217.58335648  .00120236  00000+0  36060-2 0  9997
2 47582  53.0482 262.9895 0001591  68.1227  40.4029 15.33572243  5754
STARLINK-1991           
1 47587U 21009AR  25217.51309797  .00001016  00000+0  87103-4 0  9991
2 47587  53.0545 262.0762 0001071  94.0546 266.0565 15.06396016248356
STARLINK-1993           
1 47588U 21009AS  25217.57115255  .00008577  00000+0  59362-3 0  9996
2 47588  53.0537 271.8145 0001538  69.6011 290.5143 15.06421700248223
STARLINK-1994           
1 47589U 21009AT  25217.58959183  .00003323  00000+0  24184-3 0  9992
2 47589  53.0538 271.7316 0001150  84.7861 275.3260 15.06400093248228
