[{"OBJECT_NAME":"STARLINK-2135","OBJECT_ID":"2021-005BM","EPOCH":"2025-08-05T14:02:21.064128","MEAN_MOTION":15.0639916,"ECCENTRICITY":0.0001159,"INCLINATION":53.0549,"RA_OF_ASC_NODE":281.7515,"ARG_OF_PERICENTER":94.2098,"MEAN_ANOMALY":265.9024,"EPHEMERIS_TYPE":0,"CLASSIFICATION_TYPE":"U","NORAD_CAT_ID":47408,"ELEMENT_SET_NO":999,"REV_AT_EPOCH":25089,"BSTAR":9.466e-5,"MEAN_MOTION_DOT":1.129e-5,"MEAN_MOTION_DDOT":0},{"OBJECT_NAME":"STARLINK-1954","OBJECT_ID":"2021-009H","EPOCH":"2025-08-05T13:53:03.760800","MEAN_MOTION":15.06391098,"ECCENTRICITY":0.0001298,"INCLINATION":53.055,"RA_OF_ASC_NODE":271.7815,"ARG_OF_PERICENTER":89.1814,"MEAN_ANOMALY":270.9324,"EPHEMERIS_TYPE":0,"CLASSIFICATION_TYPE":"U","NORAD_CAT_ID":47555,"ELEMENT_SET_NO":999,"REV_AT_EPOCH":24822,"BSTAR":-5.0366e-5,"MEAN_MOTION_DOT":-1.031e-5,"MEAN_MOTION_DDOT":0},{"OBJECT_NAME":"STARLINK-1955","OBJECT_ID":"2021-009J","EPOCH":"2025-08-05T13:17:08.733984","MEAN_MOTION":15.25532213,"ECCENTRICITY":0.0003964,"INCLINATION":53.0584,"RA_OF_ASC_NODE":283.6057,"ARG_OF_PERICENTER":326.5289,"MEAN_ANOMALY":33.5457,"EPHEMERIS_TYPE":0,"CLASSIFICATION_TYPE":"U","NORAD_CAT_ID":47556,"ELEMENT_SET_NO":999,"REV_AT_EPOCH":24805,"BSTAR":0.0017792,"MEAN_MOTION_DOT":0.00045653,"MEAN_MOTION_DDOT":0},{"OBJECT_NAME":"STARLINK-1958","OBJECT_ID":"2021-009M","EPOCH":"2025-08-05T12:30:47.168928","MEAN_MOTION":15.0640282,"ECCENTRICITY":0.000122,"INCLINATION":53.0549,"RA_OF_ASC_NODE":252.037,"ARG_OF_PERICENTER":88.3283,"MEAN_ANOMALY":271.7846,"EPHEMERIS_TYPE":0,"CLASSIFICATION_TYPE":"U","NORAD_CAT_ID":47559,"ELEMENT_SET_NO":999,"REV_AT_EPOCH":24849,"BSTAR":5.571e-5,"MEAN_MOTION_DOT":5.49e-6,"MEAN_MOTION_DDOT":0},{"OBJECT_NAME":"STARLINK-1962","OBJECT_ID":"2021-009R","EPOCH":"2025-08-05T12:54:40.614048","MEAN_MOTION":15.06402889,"ECCENTRICITY":0.0001126,"INCLINATION":53.0544,"RA_OF_ASC_NODE":271.9646,"ARG_OF_PERICENTER":89.8106,"MEAN_ANOMALY":270.3012,"EPHEMERIS_TYPE":0,"CLASSIFICATION_TYPE":"U","NORAD_CAT_ID":47563,"ELEMENT_SET_NO":999,"REV_AT_EPOCH":24821,"BSTAR":0.00016638,"MEAN_MOTION_DOT":2.198e-5,"MEAN_MOTION_DDOT":0},{"OBJECT_NAME":"STARLINK-1964","OBJECT_ID":"2021-009T","EPOCH":"2025-08-05T12:50:41.488224","MEAN_MOTION":15.064044,"ECCENTRICITY":0.0001229,"INCLINATION":53.0541,"RA_OF_ASC_NODE":261.9759,"ARG_OF_PERICENTER":87.4616,"MEAN_ANOMALY":272.6514,"EPHEMERIS_TYPE":0,"CLASSIFICATION_TYPE":"U","NORAD_CAT_ID":47565,"ELEMENT_SET_NO":999,"REV_AT_EPOCH":24835,"BSTAR":0.00011798,"MEAN_MOTION_DOT":1.477e-5,"MEAN_MOTION_DDOT":0},{"OBJECT_NAME":"STARLINK-1965","OBJECT_ID":"2021-009U","EPOCH":"2025-08-05T07:46:00.507072","MEAN_MOTION":15.26011766,"ECCENTRICITY":0.0003514,"INCLINATION":53.0332,"RA_OF_ASC_NODE":238.1033,"ARG_OF_PERICENTER":262.3591,"MEAN_ANOMALY":97.7008,"EPHEMERIS_TYPE":0,"CLASSIFICATION_TYPE":"U","NORAD_CAT_ID":47566,"ELEMENT_SET_NO":999,"REV_AT_EPOCH":24867,"BSTAR":0.0014608,"MEAN_MOTION_DOT":0.00037928,"MEAN_MOTION_DDOT":0},{"OBJECT_NAME":"STARLINK-1966","OBJECT_ID":"2021-009V","EPOCH":"2025-08-05T14:00:01.999872","MEAN_MOTION":15.94651571,"ECCENTRICITY":0.0009638,"INCLINATION":53.0158,"RA_OF_ASC_NODE":224.306,"ARG_OF_PERICENTER":354.0735,"MEAN_ANOMALY":260.9997,"EPHEMERIS_TYPE":0,"CLASSIFICATION_TYPE":"U","NORAD_CAT_ID":47567,"ELEMENT_SET_NO":999,"REV_AT_EPOCH":604,"BSTAR":0.00099872,"MEAN_MOTION_DOT":0.00388833,"MEAN_MOTION_DDOT":7.0855e-5},{"OBJECT_NAME":"STARLINK-1967","OBJECT_ID":"2021-009W","EPOCH":"2025-08-05T14:11:38.558400","MEAN_MOTION":15.06401206,"ECCENTRICITY":0.0001281,"INCLINATION":53.0548,"RA_OF_ASC_NODE":291.7209,"ARG_OF_PERICENTER":82.0814,"MEAN_ANOMALY":278.032,"EPHEMERIS_TYPE":0,"CLASSIFICATION_TYPE":"U","NORAD_CAT_ID":47568,"ELEMENT_SET_NO":999,"REV_AT_EPOCH":24794,"BSTAR":6.2516e-5,"MEAN_MOTION_DOT":6.5e-6,"MEAN_MOTION_DDOT":0},{"OBJECT_NAME":"STARLINK-1971","OBJECT_ID":"2021-009AA","EPOCH":"2025-08-05T10:37:59.968416","MEAN_MOTION":15.06399932,"ECCENTRICITY":0.0001093,"INCLINATION":53.0541,"RA_OF_ASC_NODE":262.3917,"ARG_OF_PERICENTER":72.7436,"MEAN_ANOMALY":287.3672,"EPHEMERIS_TYPE":0,"CLASSIFICATION_TYPE":"U","NORAD_CAT_ID":47572,"ELEMENT_SET_NO":999,"REV_AT_EPOCH":24834,"BSTAR":6.4463e-5,"MEAN_MOTION_DOT":6.79e-6,"MEAN_MOTION_DDOT":0},{"OBJECT_NAME":"STARLINK-1975","OBJECT_ID":"2021-009AB","EPOCH":"2025-08-05T12:31:41.371104","MEAN_MOTION":15.23625386,"ECCENTRICITY":0.000437,"INCLINATION":53.0671,"RA_OF_ASC_NODE":258.2273,"ARG_OF_PERICENTER":356.3998,"MEAN_ANOMALY":3.6966,"EPHEMERIS_TYPE":0,"CLASSIFICATION_TYPE":"U","NORAD_CAT_ID":47573,"ELEMENT_SET_NO":999,"REV_AT_EPOCH":24840,"BSTAR":0.0016464,"MEAN_MOTION_DOT":0.00039838,"MEAN_MOTION_DDOT":0},{"OBJECT_NAME":"STARLINK-1978","OBJECT_ID":"2021-009AE","EPOCH":"2025-08-05T08:29:16.540224","MEAN_MOTION":15.32603566,"ECCENTRICITY":0.0007258,"INCLINATION":53.0546,"RA_OF_ASC_NODE":238.411,"ARG_OF_PERICENTER":314.4033,"MEAN_ANOMALY":45.6372,"EPHEMERIS_TYPE":0,"CLASSIFICATION_TYPE":"U","NORAD_CAT_ID":47576,"ELEMENT_SET_NO":999,"REV_AT_EPOCH":24867,"BSTAR":0.0017839,"MEAN_MOTION_DOT":0.00057055,"MEAN_MOTION_DDOT":0},{"OBJECT_NAME":"STARLINK-1979","OBJECT_ID":"2021-009AF","EPOCH":"2025-08-05T10:24:04.910688","MEAN_MOTION":15.06404174,"ECCENTRICITY":0.0001175,"INCLINATION":53.0543,"RA_OF_ASC_NODE":267.4333,"ARG_OF_PERICENTER":78.3552,"MEAN_ANOMALY":281.7569,"EPHEMERIS_TYPE":0,"CLASSIFICATION_TYPE":"U","NORAD_CAT_ID":47577,"ELEMENT_SET_NO":999,"REV_AT_EPOCH":24827,"BSTAR":0.00022656,"MEAN_MOTION_DOT":3.095e-5,"MEAN_MOTION_DDOT":0},{"OBJECT_NAME":"STARLINK-1986","OBJECT_ID":"2021-009AL","EPOCH":"2025-08-05T14:00:01.999872","MEAN_MOTION":15.33572243,"ECCENTRICITY":0.0001591,"INCLINATION":53.0482,"RA_OF_ASC_NODE":262.9895,"ARG_OF_PERICENTER":68.1227,"MEAN_ANOMALY":40.4029,"EPHEMERIS_TYPE":0,"CLASSIFICATION_TYPE":"U","NORAD_CAT_ID":47582,"ELEMENT_SET_NO":999,"REV_AT_EPOCH":575,"BSTAR":0.003606,"MEAN_MOTION_DOT":0.00120236,"MEAN_MOTION_DDOT":0},{"OBJECT_NAME":"STARLINK-1991","OBJECT_ID":"2021-009AR","EPOCH":"2025-08-05T12:18:51.664608","MEAN_MOTION":15.06396016,"ECCENTRICITY":0.0001071,"INCLINATION":53.0545,"RA_OF_ASC_NODE":262.0762,"ARG_OF_PERICENTER":94.0546,"MEAN_ANOMALY":266.0565,"EPHEMERIS_TYPE":0,"CLASSIFICATION_TYPE":"U","NORAD_CAT_ID":47587,"ELEMENT_SET_NO":999,"REV_AT_EPOCH":24835,"BSTAR":8.7103e-5,"MEAN_MOTION_DOT":1.016e-5,"MEAN_MOTION_DDOT":0},{"OBJECT_NAME":"STARLINK-1993","OBJECT_ID":"2021-009AS","EPOCH":"2025-08-05T13:42:27.580320","MEAN_MOTION":15.064217,"ECCENTRICITY":0.0001538,"INCLINATION":53.0537,"RA_OF_ASC_NODE":271.8145,"ARG_OF_PERICENTER":69.6011,"MEAN_ANOMALY":290.5143,"EPHEMERIS_TYPE":0,"CLASSIFICATION_TYPE":"U","NORAD_CAT_ID":47588,"ELEMENT_SET_NO":999,"REV_AT_EPOCH":24822,"BSTAR":0.00059362,"MEAN_MOTION_DOT":8.577e-5,"MEAN_MOTION_DDOT":0},{"OBJECT_NAME":"STARLINK-1994","OBJECT_ID":"2021-009AT","EPOCH":"2025-08-05T14:09:00.734112","MEAN_MOTION":15.06400093,"ECCENTRICITY":0.000115,"INCLINATION":53.0538,"RA_OF_ASC_NODE":271.7316,"ARG_OF_PERICENTER":84.7861,"MEAN_ANOMALY":275.326,"EPHEMERIS_TYPE":0,"CLASSIFICATION_TYPE":"U","NORAD_CAT_ID":47589,"ELEMENT_SET_NO":999,"REV_AT_EPOCH":24822,"BSTAR":0.00024184,"MEAN_MOTION_DOT":3.323e-5,"MEAN_MOTION_DDOT":0}]
